{
  "type": "FeatureCollection",
  "features": [
    {
      "type": "Feature",
      "properties": {
        "norad_id": 36036,
        "name": "SMOS",
        "group": "resource",
        "lat": -42.27080027691816,
        "lon": -1.8286870466911607,
        "alt_km": 766.4791677382682,
        "timestamp": "2025-12-27T02:10:15.844803+00:00",
        "meta_object_name": "SMOS",
        "meta_object_id": "2009-059A",
        "meta_epoch": "2025-12-26T11:47:46.851072",
        "meta_mean_motion": 14.39753392,
        "meta_eccentricity": 0.000104,
        "meta_inclination": 98.4382,
        "meta_ra_of_asc_node": 185.3364,
        "meta_arg_of_pericenter": 83.5124,
        "meta_mean_anomaly": 276.6183,
        "meta_ephemeris_type": 0,
        "meta_classification_type": "U",
        "meta_norad_cat_id": 36036,
        "meta_element_set_no": 999,
        "meta_rev_at_epoch": 84860,
        "meta_bstar": 0.00014539,
        "meta_mean_motion_dot": 4.12e-06,
        "meta_mean_motion_ddot": 0,
        "tle_line1": "1 36036U 09059A   25360.49151448  .00000412  00000+0  14539-3 0  9994",
        "tle_line2": "2 36036  98.4382 185.3364 0001040  83.5124 276.6183 14.39753392848607"
      },
      "geometry": {
        "type": "Point",
        "coordinates": [
          -1.8286870466911607,
          -42.27080027691816
        ]
      }
    },
    {
      "type": "Feature",
      "properties": {
        "norad_id": 36110,
        "name": "YAOGAN-7",
        "group": "resource",
        "lat": -27.125926239886155,
        "lon": 58.64872706558531,
        "alt_km": 627.259850684155,
        "timestamp": "2025-12-27T02:10:15.844813+00:00",
        "meta_object_name": "YAOGAN-7",
        "meta_object_id": "2009-069A",
        "meta_epoch": "2025-12-26T15:29:02.012352",
        "meta_mean_motion": 14.77752551,
        "meta_eccentricity": 0.0023522,
        "meta_inclination": 98.0293,
        "meta_ra_of_asc_node": 242.3521,
        "meta_arg_of_pericenter": 233.9323,
        "meta_mean_anomaly": 125.9709,
        "meta_ephemeris_type": 0,
        "meta_classification_type": "U",
        "meta_norad_cat_id": 36110,
        "meta_element_set_no": 999,
        "meta_rev_at_epoch": 86414,
        "meta_bstar": 0.00010378,
        "meta_mean_motion_dot": 6.94e-06,
        "meta_mean_motion_ddot": 0,
        "tle_line1": "1 36110U 09069A   25360.64516218  .00000694  00000+0  10378-3 0  9994",
        "tle_line2": "2 36110  98.0293 242.3521 0023522 233.9323 125.9709 14.77752551864142"
      },
      "geometry": {
        "type": "Point",
        "coordinates": [
          58.64872706558531,
          -27.125926239886155
        ]
      }
    },
    {
      "type": "Feature",
      "properties": {
        "norad_id": 36605,
        "name": "TANDEM-X",
        "group": "resource",
        "lat": 67.3833038831417,
        "lon": -12.03412997060628,
        "alt_km": 500.701929661951,
        "timestamp": "2025-12-27T02:10:15.844823+00:00",
        "meta_object_name": "TANDEM-X",
        "meta_object_id": "2010-030A",
        "meta_epoch": "2025-12-26T13:13:25.252608",
        "meta_mean_motion": 15.1915819,
        "meta_eccentricity": 0.0001776,
        "meta_inclination": 97.4455,
        "meta_ra_of_asc_node": 5.7293,
        "meta_arg_of_pericenter": 92.0278,
        "meta_mean_anomaly": 268.116,
        "meta_ephemeris_type": 0,
        "meta_classification_type": "U",
        "meta_norad_cat_id": 36605,
        "meta_element_set_no": 999,
        "meta_rev_at_epoch": 86043,
        "meta_bstar": 6.7415e-05,
        "meta_mean_motion_dot": 1.349e-05,
        "meta_mean_motion_ddot": 0,
        "tle_line1": "1 36605U 10030A   25360.55098672  .00001349  00000+0  67415-4 0  9995",
        "tle_line2": "2 36605  97.4455   5.7293 0001776  92.0278 268.1160 15.19158190860436"
      },
      "geometry": {
        "type": "Point",
        "coordinates": [
          -12.03412997060628,
          67.3833038831417
        ]
      }
    },
    {
      "type": "Feature",
      "properties": {
        "norad_id": 36795,
        "name": "CARTOSAT-2B",
        "group": "resource",
        "lat": -5.865472811568306,
        "lon": -131.1526035693371,
        "alt_km": 644.7485840727259,
        "timestamp": "2025-12-27T02:10:15.844834+00:00",
        "meta_object_name": "CARTOSAT-2B",
        "meta_object_id": "2010-035A",
        "meta_epoch": "2025-12-26T20:27:43.839072",
        "meta_mean_motion": 14.78747042,
        "meta_eccentricity": 0.0012485,
        "meta_inclination": 97.783,
        "meta_ra_of_asc_node": 49.4224,
        "meta_arg_of_pericenter": 34.7804,
        "meta_mean_anomaly": 325.4221,
        "meta_ephemeris_type": 0,
        "meta_classification_type": "U",
        "meta_norad_cat_id": 36795,
        "meta_element_set_no": 999,
        "meta_rev_at_epoch": 83438,
        "meta_bstar": 0.00015234,
        "meta_mean_motion_dot": 1.07e-05,
        "meta_mean_motion_ddot": 0,
        "tle_line1": "1 36795U 10035A   25360.85259073  .00001070  00000+0  15234-3 0  9999",
        "tle_line2": "2 36795  97.7830  49.4224 0012485  34.7804 325.4221 14.78747042834386"
      },
      "geometry": {
        "type": "Point",
        "coordinates": [
          -131.1526035693371,
          -5.865472811568306
        ]
      }
    },
    {
      "type": "Feature",
      "properties": {
        "norad_id": 36834,
        "name": "YAOGAN-10",
        "group": "resource",
        "lat": -30.182453569019323,
        "lon": -163.83724776647338,
        "alt_km": 621.2738745439265,
        "timestamp": "2025-12-27T02:10:15.844844+00:00",
        "meta_object_name": "YAOGAN-10",
        "meta_object_id": "2010-038A",
        "meta_epoch": "2025-12-26T20:55:42.254112",
        "meta_mean_motion": 14.84658953,
        "meta_eccentricity": 0.0001332,
        "meta_inclination": 97.9134,
        "meta_ra_of_asc_node": 20.5861,
        "meta_arg_of_pericenter": 79.05,
        "meta_mean_anomaly": 44.5105,
        "meta_ephemeris_type": 0,
        "meta_classification_type": "U",
        "meta_norad_cat_id": 36834,
        "meta_element_set_no": 999,
        "meta_rev_at_epoch": 83163,
        "meta_bstar": 0.0001668,
        "meta_mean_motion_dot": 1.357e-05,
        "meta_mean_motion_ddot": 0,
        "tle_line1": "1 36834U 10038A   25360.87201683  .00001357  00000+0  16680-3 0  9996",
        "tle_line2": "2 36834  97.9134  20.5861 0001332  79.0500  44.5105 14.84658953831634"
      },
      "geometry": {
        "type": "Point",
        "coordinates": [
          -163.83724776647338,
          -30.182453569019323
        ]
      }
    },
    {
      "type": "Feature",
      "properties": {
        "norad_id": 37216,
        "name": "COSMO-SKYMED 4",
        "group": "resource",
        "lat": 5.426345161310215,
        "lon": -178.55621632756376,
        "alt_km": 624.5362953042213,
        "timestamp": "2025-12-27T02:10:15.844854+00:00",
        "meta_object_name": "COSMO-SKYMED 4",
        "meta_object_id": "2010-060A",
        "meta_epoch": "2025-12-26T19:39:55.637280",
        "meta_mean_motion": 14.82164892,
        "meta_eccentricity": 0.0001415,
        "meta_inclination": 97.8809,
        "meta_ra_of_asc_node": 181.9308,
        "meta_arg_of_pericenter": 81.8922,
        "meta_mean_anomaly": 278.2452,
        "meta_ephemeris_type": 0,
        "meta_classification_type": "U",
        "meta_norad_cat_id": 37216,
        "meta_element_set_no": 999,
        "meta_rev_at_epoch": 81903,
        "meta_bstar": 0.00017467,
        "meta_mean_motion_dot": 1.339e-05,
        "meta_mean_motion_ddot": 0,
        "tle_line1": "1 37216U 10060A   25360.81939395  .00001339  00000+0  17467-3 0  9992",
        "tle_line2": "2 37216  97.8809 181.9308 0001415  81.8922 278.2452 14.82164892819039"
      },
      "geometry": {
        "type": "Point",
        "coordinates": [
          -178.55621632756376,
          5.426345161310215
        ]
      }
    },
    {
      "type": "Feature",
      "properties": {
        "norad_id": 37387,
        "name": "RESOURCESAT-2",
        "group": "resource",
        "lat": 80.88281604722077,
        "lon": -9.934206962586568,
        "alt_km": 812.1067070346662,
        "timestamp": "2025-12-27T02:10:15.844865+00:00",
        "meta_object_name": "RESOURCESAT-2",
        "meta_object_id": "2011-015A",
        "meta_epoch": "2025-12-26T19:00:15.227424",
        "meta_mean_motion": 14.21595638,
        "meta_eccentricity": 0.0005746,
        "meta_inclination": 98.7858,
        "meta_ra_of_asc_node": 64.2793,
        "meta_arg_of_pericenter": 4.0104,
        "meta_mean_anomaly": 356.1118,
        "meta_ephemeris_type": 0,
        "meta_classification_type": "U",
        "meta_norad_cat_id": 37387,
        "meta_element_set_no": 999,
        "meta_rev_at_epoch": 76168,
        "meta_bstar": 7.573e-05,
        "meta_mean_motion_dot": 1.22e-06,
        "meta_mean_motion_ddot": 0,
        "tle_line1": "1 37387U 11015A   25360.79184291  .00000122  00000+0  75730-4 0  9993",
        "tle_line2": "2 37387  98.7858  64.2793 0005746   4.0104 356.1118 14.21595638761684"
      },
      "geometry": {
        "type": "Point",
        "coordinates": [
          -9.934206962586568,
          80.88281604722077
        ]
      }
    }
  ]
}